EBLG 1803 00000KT 0600 FG OVC008 BKN040 PROB40 2024 0300 DZ FG OVC002 BKN040
EBAW 180020Z AUTO 20003KT CAVOK 00/M04 Q1029
EBBR 0615 20015KT 8000 RA SCT010 OVC015 TEMPO 0608 5000 RA BKN005 BECMG 0810 9999 NSW BKN025
EBBR 180050Z 19004KT CAVOK M00/M04 Q1029 NOSIG
EHRD 180055Z AUTO 19006KT 9999 NCD 00/M02 Q1028 NOSIG
ELLX 180020Z AUTO VRB01KT 9999 NDV M01/M05 Q1030
LEBL 180030Z 33007KT 9999 FEW020 08/06 Q1031 NOSIG
EDDF 180020Z 08001KT CAVOK M06/M07 Q1032 NOSIG
LIMC 180050Z 00000KT 0800 R17R/1500N R35L/1500N FZFG NSC M08/M08 Q1029 NOSIG
UUDD 180100Z 17002MPS 5000 -SN BR SCT033 OVC100 M08/M09 Q1026 64490293 NOSIG
UTTT 180100Z VRB01MPS 2300 BR OVC011 M02/M04 Q1027 R08L/CLRD70 NOSIG

EBBR 0615 20015KT 8000 RA SCT010 OVC015 TEMPO 0608 5000 RA BKN005 BECMG 0810 9999 NSW BKN025